{"type":"FeatureCollection","features":[{"type":"Feature","properties":{"cls":"residential","kind":"road"},"geometry":{"type":"LineString","coordinates":[[-4.44,36.7],[-4.437,36.7]]}},{"type":"Feature","properties":{"cls":"residential","kind":"road"},"geometry":{"type":"LineString","coordinates":[[-4.437,36.7],[-4.434,36.7]]}},{"type":"Feature","properties":{"cls":"residential","kind":"road"},"geometry":{"type":"LineString","coordinates":[[-4.434,36.7],[-4.431,36.7]]}},{"type":"Feature","properties":{"cls":"residential","kind":"road"},"geometry":{"type":"LineString","coordinates":[[-4.431,36.7],[-4.428,36.7]]}},{"type":"Feature","properties":{"cls":"residential","kind":"road"},"geometry":{"type":"LineString","coordinates":[[-4.428,36.7],[-4.425,36.7]]}},{"type":"Feature","properties":{"cls":"residential","kind":"road"},"geometry":{"type":"LineString","coordinates":[[-4.425,36.7],[-4.422,36.7]]}},{"type":"Feature","properties":{"cls":"residential","kind":"road"},"geometry":{"type":"LineString","coordinates":[[-4.44,36.703],[-4.437,36.703]]}},{"type":"Feature","properties":{"cls":"residential","kind":"road"},"geometry":{"type":"LineString","coordinates":[[-4.437,36.703],[-4.434,36.703]]}},{"type":"Feature","properties":{"cls":"residential","kind":"road"},"geometry":{"type":"LineString","coordinates":[[-4.434,36.703],[-4.431,36.703]]}},{"type":"Feature","properties":{"cls":"residential","kind":"road"},"geometry":{"type":"LineString","coordinates":[[-4.431,36.703],[-4.428,36.703]]}},{"type":"Feature","properties":{"cls":"residential","kind":"road"},"geometry":{"type":"LineString","coordinates":[[-4.428,36.703],[-4.425,36.703]]}},{"type":"Feature","properties":{"cls":"residential","kind":"road"},"geometry":{"type":"LineString","coordinates":[[-4.425,36.703],[-4.422,36.703]]}},{"type":"Feature","properties":{"cls":"cycleway","kind":"bike"},"geometry":{"type":"LineString","coordinates":[[-4.44,36.706],[-4.437,36.706]]}},{"type":"Feature","properties":{"cls":"cycleway","kind":"bike"},"geometry":{"type":"LineString","coordinates":[[-4.437,36.706],[-4.434,36.706]]}},{"type":"Feature","properties":{"cls":"cycleway","kind":"bike"},"geometry":{"type":"LineString","coordinates":[[-4.434,36.706],[-4.431,36.706]]}},{"type":"Feature","properties":{"cls":"cycleway","kind":"bike"},"geometry":{"type":"LineString","coordinates":[[-4.431,36.706],[-4.428,36.706]]}},{"type":"Feature","properties":{"cls":"cycleway","kind":"bike"},"geometry":{"type":"LineString","coordinates":[[-4.428,36.706],[-4.425,36.706]]}},{"type":"Feature","properties":{"cls":"cycleway","kind":"bike"},"geometry":{"type":"LineString","coordinates":[[-4.425,36.706],[-4.422,36.706]]}},{"type":"Feature","properties":{"cls":"residential","kind":"road"},"geometry":{"type":"LineString","coordinates":[[-4.44,36.709],[-4.437,36.709]]}},{"type":"Feature","properties":{"cls":"residential","kind":"road"},"geometry":{"type":"LineString","coordinates":[[-4.437,36.709],[-4.434,36.709]]}},{"type":"Feature","properties":{"cls":"residential","kind":"road"},"geometry":{"type":"LineString","coordinates":[[-4.434,36.709],[-4.431,36.709]]}},{"type":"Feature","properties":{"cls":"residential","kind":"road"},"geometry":{"type":"LineString","coordinates":[[-4.431,36.709],[-4.428,36.709]]}},{"type":"Feature","properties":{"cls":"residential","kind":"road"},"geometry":{"type":"LineString","coordinates":[[-4.428,36.709],[-4.425,36.709]]}},{"type":"Feature","properties":{"cls":"residential","kind":"road"},"geometry":{"type":"LineString","coordinates":[[-4.425,36.709],[-4.422,36.709]]}},{"type":"Feature","properties":{"cls":"cycle_lane","kind":"bike"},"geometry":{"type":"LineString","coordinates":[[-4.44,36.712],[-4.437,36.712]]}},{"type":"Feature","properties":{"cls":"cycle_lane","kind":"bike"},"geometry":{"type":"LineString","coordinates":[[-4.437,36.712],[-4.434,36.712]]}},{"type":"Feature","properties":{"cls":"cycle_lane","kind":"bike"},"geometry":{"type":"LineString","coordinates":[[-4.434,36.712],[-4.431,36.712]]}},{"type":"Feature","properties":{"cls":"cycle_lane","kind":"bike"},"geometry":{"type":"LineString","coordinates":[[-4.431,36.712],[-4.428,36.712]]}},{"type":"Feature","properties":{"cls":"cycle_lane","kind":"bike"},"geometry":{"type":"LineString","coordinates":[[-4.428,36.712],[-4.4265,36.712]]}},{"type":"Feature","properties":{"cls":"cycle_lane","kind":"bike"},"geometry":{"type":"LineString","coordinates":[[-4.4265,36.712],[-4.425,36.712]]}},{"type":"Feature","properties":{"cls":"cycle_lane","kind":"bike"},"geometry":{"type":"LineString","coordinates":[[-4.425,36.712],[-4.422,36.712]]}},{"type":"Feature","properties":{"cls":"residential","kind":"road"},"geometry":{"type":"LineString","coordinates":[[-4.44,36.715],[-4.437,36.715]]}},{"type":"Feature","properties":{"cls":"residential","kind":"road"},"geometry":{"type":"LineString","coordinates":[[-4.437,36.715],[-4.434,36.715]]}},{"type":"Feature","properties":{"cls":"residential","kind":"road"},"geometry":{"type":"LineString","coordinates":[[-4.434,36.715],[-4.431,36.715]]}},{"type":"Feature","properties":{"cls":"residential","kind":"road"},"geometry":{"type":"LineString","coordinates":[[-4.431,36.715],[-4.428,36.715]]}},{"type":"Feature","properties":{"cls":"residential","kind":"road"},"geometry":{"type":"LineString","coordinates":[[-4.428,36.715],[-4.425,36.715]]}},{"type":"Feature","properties":{"cls":"residential","kind":"road"},"geometry":{"type":"LineString","coordinates":[[-4.425,36.715],[-4.422,36.715]]}},{"type":"Feature","properties":{"cls":"residential","kind":"road"},"geometry":{"type":"LineString","coordinates":[[-4.44,36.7],[-4.44,36.703]]}},{"type":"Feature","properties":{"cls":"residential","kind":"road"},"geometry":{"type":"LineString","coordinates":[[-4.44,36.703],[-4.44,36.706]]}},{"type":"Feature","properties":{"cls":"residential","kind":"road"},"geometry":{"type":"LineString","coordinates":[[-4.44,36.706],[-4.44,36.709]]}},{"type":"Feature","properties":{"cls":"residential","kind":"road"},"geometry":{"type":"LineString","coordinates":[[-4.44,36.709],[-4.44,36.712]]}},{"type":"Feature","properties":{"cls":"residential","kind":"road"},"geometry":{"type":"LineString","coordinates":[[-4.44,36.712],[-4.44,36.715]]}},{"type":"Feature","properties":{"cls":"residential","kind":"road"},"geometry":{"type":"LineString","coordinates":[[-4.437,36.7],[-4.437,36.703]]}},{"type":"Feature","properties":{"cls":"residential","kind":"road"},"geometry":{"type":"LineString","coordinates":[[-4.437,36.703],[-4.437,36.706]]}},{"type":"Feature","properties":{"cls":"residential","kind":"road"},"geometry":{"type":"LineString","coordinates":[[-4.437,36.706],[-4.437,36.709]]}},{"type":"Feature","properties":{"cls":"residential","kind":"road"},"geometry":{"type":"LineString","coordinates":[[-4.437,36.709],[-4.437,36.712]]}},{"type":"Feature","properties":{"cls":"residential","kind":"road"},"geometry":{"type":"LineString","coordinates":[[-4.437,36.712],[-4.437,36.715]]}},{"type":"Feature","properties":{"cls":"residential","kind":"road"},"geometry":{"type":"LineString","coordinates":[[-4.434,36.7],[-4.434,36.703]]}},{"type":"Feature","properties":{"cls":"residential","kind":"road"},"geometry":{"type":"LineString","coordinates":[[-4.434,36.703],[-4.434,36.706]]}},{"type":"Feature","properties":{"cls":"residential","kind":"road"},"geometry":{"type":"LineString","coordinates":[[-4.434,36.706],[-4.434,36.709]]}},{"type":"Feature","properties":{"cls":"residential","kind":"road"},"geometry":{"type":"LineString","coordinates":[[-4.434,36.709],[-4.434,36.712]]}},{"type":"Feature","properties":{"cls":"residential","kind":"road"},"geometry":{"type":"LineString","coordinates":[[-4.434,36.712],[-4.434,36.715]]}},{"type":"Feature","properties":{"cls":"residential","kind":"road"},"geometry":{"type":"LineString","coordinates":[[-4.431,36.7],[-4.431,36.703]]}},{"type":"Feature","properties":{"cls":"residential","kind":"road"},"geometry":{"type":"LineString","coordinates":[[-4.431,36.703],[-4.431,36.706]]}},{"type":"Feature","properties":{"cls":"residential","kind":"road"},"geometry":{"type":"LineString","coordinates":[[-4.431,36.706],[-4.431,36.709]]}},{"type":"Feature","properties":{"cls":"residential","kind":"road"},"geometry":{"type":"LineString","coordinates":[[-4.431,36.709],[-4.431,36.712]]}},{"type":"Feature","properties":{"cls":"residential","kind":"road"},"geometry":{"type":"LineString","coordinates":[[-4.431,36.712],[-4.431,36.715]]}},{"type":"Feature","properties":{"cls":"residential","kind":"road"},"geometry":{"type":"LineString","coordinates":[[-4.428,36.7],[-4.428,36.703]]}},{"type":"Feature","properties":{"cls":"residential","kind":"road"},"geometry":{"type":"LineString","coordinates":[[-4.428,36.703],[-4.428,36.706]]}},{"type":"Feature","properties":{"cls":"residential","kind":"road"},"geometry":{"type":"LineString","coordinates":[[-4.428,36.706],[-4.428,36.709]]}},{"type":"Feature","properties":{"cls":"residential","kind":"road"},"geometry":{"type":"LineString","coordinates":[[-4.428,36.709],[-4.428,36.711]]}},{"type":"Feature","properties":{"cls":"residential","kind":"road"},"geometry":{"type":"LineString","coordinates":[[-4.428,36.711],[-4.428,36.712]]}},{"type":"Feature","properties":{"cls":"residential","kind":"road"},"geometry":{"type":"LineString","coordinates":[[-4.428,36.712],[-4.428,36.715]]}},{"type":"Feature","properties":{"cls":"residential","kind":"road"},"geometry":{"type":"LineString","coordinates":[[-4.425,36.7],[-4.425,36.703]]}},{"type":"Feature","properties":{"cls":"residential","kind":"road"},"geometry":{"type":"LineString","coordinates":[[-4.425,36.703],[-4.425,36.706]]}},{"type":"Feature","properties":{"cls":"residential","kind":"road"},"geometry":{"type":"LineString","coordinates":[[-4.425,36.706],[-4.425,36.709]]}},{"type":"Feature","properties":{"cls":"residential","kind":"road"},"geometry":{"type":"LineString","coordinates":[[-4.425,36.709],[-4.425,36.712]]}},{"type":"Feature","properties":{"cls":"residential","kind":"road"},"geometry":{"type":"LineString","coordinates":[[-4.425,36.712],[-4.425,36.713]]}},{"type":"Feature","properties":{"cls":"residential","kind":"road"},"geometry":{"type":"LineString","coordinates":[[-4.425,36.713],[-4.425,36.715]]}},{"type":"Feature","properties":{"cls":"residential","kind":"road"},"geometry":{"type":"LineString","coordinates":[[-4.422,36.7],[-4.422,36.703]]}},{"type":"Feature","properties":{"cls":"residential","kind":"road"},"geometry":{"type":"LineString","coordinates":[[-4.422,36.703],[-4.422,36.706]]}},{"type":"Feature","properties":{"cls":"residential","kind":"road"},"geometry":{"type":"LineString","coordinates":[[-4.422,36.706],[-4.422,36.709]]}},{"type":"Feature","properties":{"cls":"residential","kind":"road"},"geometry":{"type":"LineString","coordinates":[[-4.422,36.709],[-4.422,36.712]]}},{"type":"Feature","properties":{"cls":"residential","kind":"road"},"geometry":{"type":"LineString","coordinates":[[-4.422,36.712],[-4.422,36.715]]}},{"type":"Feature","properties":{"cls":"cycleway","kind":"bike"},"geometry":{"type":"LineString","coordinates":[[-4.44,36.7],[-4.437,36.703]]}},{"type":"Feature","properties":{"cls":"cycleway","kind":"bike"},"geometry":{"type":"LineString","coordinates":[[-4.437,36.703],[-4.434,36.706]]}},{"type":"Feature","properties":{"cls":"cycleway","kind":"bike"},"geometry":{"type":"LineString","coordinates":[[-4.434,36.706],[-4.431,36.709]]}},{"type":"Feature","properties":{"cls":"cycleway","kind":"bike"},"geometry":{"type":"LineString","coordinates":[[-4.431,36.709],[-4.428,36.711]]}},{"type":"Feature","properties":{"cls":"cycleway","kind":"bike"},"geometry":{"type":"LineString","coordinates":[[-4.428,36.711],[-4.4265,36.712]]}},{"type":"Feature","properties":{"cls":"cycleway","kind":"bike"},"geometry":{"type":"LineString","coordinates":[[-4.4265,36.712],[-4.425,36.713]]}},{"type":"Feature","properties":{"cls":"cycleway","kind":"bike"},"geometry":{"type":"LineString","coordinates":[[-4.425,36.713],[-4.422,36.715]]}}]}